{
  "type": "FeatureCollection",
  "features": [
    {
      "type": "Feature",
      "properties": {
        "norad_id": 38797,
        "name": "FENGYUN 1C DEB",
        "group": "fengyun-1c-debris",
        "lat": 31.337838951591216,
        "lon": 67.42337616429523,
        "alt_km": 956.2849960838294,
        "timestamp": "2025-12-14T18:52:55.793461+00:00",
        "meta_object_name": "FENGYUN 1C DEB",
        "meta_object_id": "1999-025EUM",
        "meta_epoch": "2025-12-11T10:46:32.675520",
        "meta_mean_motion": 13.61609837,
        "meta_eccentricity": 0.02449104,
        "meta_inclination": 99.4842,
        "meta_ra_of_asc_node": 238.3367,
        "meta_arg_of_pericenter": 224.6313,
        "meta_mean_anomaly": 133.4881,
        "meta_ephemeris_type": 0,
        "meta_classification_type": "U",
        "meta_norad_cat_id": 38797,
        "meta_element_set_no": 999,
        "meta_rev_at_epoch": 59265,
        "meta_bstar": 0.00041911499,
        "meta_mean_motion_dot": 3.48e-06,
        "meta_mean_motion_ddot": 0,
        "tle_line1": "1 38797U 99025EUM 25345.44898930  .00000348  00000+0  41911-3 0  9996",
        "tle_line2": "2 38797  99.4842 238.3367 0244910 224.6313 133.4881 13.61609837592654"
      },
      "geometry": {
        "type": "Point",
        "coordinates": [
          67.42337616429523,
          31.337838951591216
        ]
      }
    },
    {
      "type": "Feature",
      "properties": {
        "norad_id": 38799,
        "name": "FENGYUN 1C DEB",
        "group": "fengyun-1c-debris",
        "lat": 79.00863352116959,
        "lon": 14.65390336463276,
        "alt_km": 738.2647526765595,
        "timestamp": "2025-12-14T18:52:55.793471+00:00",
        "meta_object_name": "FENGYUN 1C DEB",
        "meta_object_id": "1999-025EUP",
        "meta_epoch": "2025-12-13T22:37:00.769728",
        "meta_mean_motion": 14.48758903,
        "meta_eccentricity": 0.01636305,
        "meta_inclination": 98.4058,
        "meta_ra_of_asc_node": 63.394,
        "meta_arg_of_pericenter": 346.6756,
        "meta_mean_anomaly": 13.014,
        "meta_ephemeris_type": 0,
        "meta_classification_type": "U",
        "meta_norad_cat_id": 38799,
        "meta_element_set_no": 999,
        "meta_rev_at_epoch": 64056,
        "meta_bstar": 0.001075572,
        "meta_mean_motion_dot": 4.76e-05,
        "meta_mean_motion_ddot": 0,
        "tle_line1": "1 38799U 99025EUP 25347.94237002  .00004760  00000+0  10756-2 0  9996",
        "tle_line2": "2 38799  98.4058  63.3940 0163630 346.6756  13.0140 14.48758903640562"
      },
      "geometry": {
        "type": "Point",
        "coordinates": [
          14.65390336463276,
          79.00863352116959
        ]
      }
    },
    {
      "type": "Feature",
      "properties": {
        "norad_id": 38801,
        "name": "FENGYUN 1C DEB",
        "group": "fengyun-1c-debris",
        "lat": 0.016569354535573923,
        "lon": -140.67871249915467,
        "alt_km": 1053.6226666517405,
        "timestamp": "2025-12-14T18:52:55.793481+00:00",
        "meta_object_name": "FENGYUN 1C DEB",
        "meta_object_id": "1999-025EUR",
        "meta_epoch": "2025-12-12T08:59:43.054368",
        "meta_mean_motion": 14.2481005,
        "meta_eccentricity": 0.03470203,
        "meta_inclination": 98.374,
        "meta_ra_of_asc_node": 37.0126,
        "meta_arg_of_pericenter": 353.0608,
        "meta_mean_anomaly": 63.1287,
        "meta_ephemeris_type": 0,
        "meta_classification_type": "U",
        "meta_norad_cat_id": 38801,
        "meta_element_set_no": 999,
        "meta_rev_at_epoch": 64355,
        "meta_bstar": 0.00081520626,
        "meta_mean_motion_dot": 3.523e-05,
        "meta_mean_motion_ddot": 0,
        "tle_line1": "1 38801U 99025EUR 25346.37480387  .00003523  00000+0  81521-3 0  9997",
        "tle_line2": "2 38801  98.3740  37.0126 0347020 353.0608  63.1287 14.24810050643558"
      },
      "geometry": {
        "type": "Point",
        "coordinates": [
          -140.67871249915467,
          0.016569354535573923
        ]
      }
    },
    {
      "type": "Feature",
      "properties": {
        "norad_id": 38803,
        "name": "FENGYUN 1C DEB",
        "group": "fengyun-1c-debris",
        "lat": 41.15094230575928,
        "lon": -15.379855846231852,
        "alt_km": 764.2461590743778,
        "timestamp": "2025-12-14T18:52:55.793491+00:00",
        "meta_object_name": "FENGYUN 1C DEB",
        "meta_object_id": "1999-025EUT",
        "meta_epoch": "2025-12-11T23:13:14.211840",
        "meta_mean_motion": 14.23655987,
        "meta_eccentricity": 0.006424,
        "meta_inclination": 99.1403,
        "meta_ra_of_asc_node": 349.7804,
        "meta_arg_of_pericenter": 38.5359,
        "meta_mean_anomaly": 322.0379,
        "meta_ephemeris_type": 0,
        "meta_classification_type": "U",
        "meta_norad_cat_id": 38803,
        "meta_element_set_no": 999,
        "meta_rev_at_epoch": 60201,
        "meta_bstar": 0.003165,
        "meta_mean_motion_dot": 7.334e-05,
        "meta_mean_motion_ddot": 0,
        "tle_line1": "1 38803U 99025EUT 25345.96752560  .00007334  00000+0  31650-2 0  9999",
        "tle_line2": "2 38803  99.1403 349.7804 0064240  38.5359 322.0379 14.23655987602019"
      },
      "geometry": {
        "type": "Point",
        "coordinates": [
          -15.379855846231852,
          41.15094230575928
        ]
      }
    },
    {
      "type": "Feature",
      "properties": {
        "norad_id": 38809,
        "name": "FENGYUN 1C DEB",
        "group": "fengyun-1c-debris",
        "lat": -46.60577877846489,
        "lon": 8.093226051110221,
        "alt_km": 679.6462932821696,
        "timestamp": "2025-12-14T18:52:55.793501+00:00",
        "meta_object_name": "FENGYUN 1C DEB",
        "meta_object_id": "1999-025EUZ",
        "meta_epoch": "2025-12-12T06:08:20.627520",
        "meta_mean_motion": 14.18170035,
        "meta_eccentricity": 0.02227856,
        "meta_inclination": 98.5902,
        "meta_ra_of_asc_node": 356.4418,
        "meta_arg_of_pericenter": 329.4038,
        "meta_mean_anomaly": 29.4297,
        "meta_ephemeris_type": 0,
        "meta_classification_type": "U",
        "meta_norad_cat_id": 38809,
        "meta_element_set_no": 999,
        "meta_rev_at_epoch": 69199,
        "meta_bstar": 0.00091383718,
        "meta_mean_motion_dot": 2.353e-05,
        "meta_mean_motion_ddot": 0,
        "tle_line1": "1 38809U 99025EUZ 25346.25579430  .00002353  00000+0  91384-3 0  9998",
        "tle_line2": "2 38809  98.5902 356.4418 0222785 329.4038  29.4297 14.18170035691996"
      },
      "geometry": {
        "type": "Point",
        "coordinates": [
          8.093226051110221,
          -46.60577877846489
        ]
      }
    },
    {
      "type": "Feature",
      "properties": {
        "norad_id": 38813,
        "name": "FENGYUN 1C DEB",
        "group": "fengyun-1c-debris",
        "lat": 68.66615090337235,
        "lon": -38.874899398788315,
        "alt_km": 814.3386259315421,
        "timestamp": "2025-12-14T18:52:55.793511+00:00",
        "meta_object_name": "FENGYUN 1C DEB",
        "meta_object_id": "1999-025EVD",
        "meta_epoch": "2025-12-13T18:52:41.433888",
        "meta_mean_motion": 14.20167427,
        "meta_eccentricity": 0.00065107,
        "meta_inclination": 99.3459,
        "meta_ra_of_asc_node": 345.0085,
        "meta_arg_of_pericenter": 111.2502,
        "meta_mean_anomaly": 248.9369,
        "meta_ephemeris_type": 0,
        "meta_classification_type": "U",
        "meta_norad_cat_id": 38813,
        "meta_element_set_no": 999,
        "meta_rev_at_epoch": 48265,
        "meta_bstar": 0.00071362745,
        "meta_mean_motion_dot": 1.474e-05,
        "meta_mean_motion_ddot": 0,
        "tle_line1": "1 38813U 99025EVD 25347.78659067  .00001474  00000+0  71363-3 0  9995",
        "tle_line2": "2 38813  99.3459 345.0085 0006510 111.2502 248.9369 14.20167427482653"
      },
      "geometry": {
        "type": "Point",
        "coordinates": [
          -38.874899398788315,
          68.66615090337235
        ]
      }
    },
    {
      "type": "Feature",
      "properties": {
        "norad_id": 38817,
        "name": "FENGYUN 1C DEB",
        "group": "fengyun-1c-debris",
        "lat": -37.33052987937135,
        "lon": -134.49028454999075,
        "alt_km": 994.9514483561616,
        "timestamp": "2025-12-14T18:52:55.793521+00:00",
        "meta_object_name": "FENGYUN 1C DEB",
        "meta_object_id": "1999-025EVH",
        "meta_epoch": "2025-12-13T20:04:14.011392",
        "meta_mean_motion": 13.5769547,
        "meta_eccentricity": 0.02914797,
        "meta_inclination": 98.6001,
        "meta_ra_of_asc_node": 218.0492,
        "meta_arg_of_pericenter": 41.5305,
        "meta_mean_anomaly": 320.759,
        "meta_ephemeris_type": 0,
        "meta_classification_type": "U",
        "meta_norad_cat_id": 38817,
        "meta_element_set_no": 999,
        "meta_rev_at_epoch": 65849,
        "meta_bstar": 0.002535334,
        "meta_mean_motion_dot": 2.368e-05,
        "meta_mean_motion_ddot": 0,
        "tle_line1": "1 38817U 99025EVH 25347.83627328  .00002368  00000+0  25353-2 0  9990",
        "tle_line2": "2 38817  98.6001 218.0492 0291479  41.5305 320.7590 13.57695470658494"
      },
      "geometry": {
        "type": "Point",
        "coordinates": [
          -134.49028454999075,
          -37.33052987937135
        ]
      }
    }
  ]
}